[{"OBJECT_NAME":"GENMAT-1","OBJECT_ID":"2023-174W","EPOCH":"2026-03-09T18:03:23.351040","MEAN_MOTION":15.32594666,"ECCENTRICITY":0.00074416,"INCLINATION":97.3728,"RA_OF_ASC_NODE":146.8236,"ARG_OF_PERICENTER":169.2515,"MEAN_ANOMALY":190.8888,"EPHEMERIS_TYPE":0,"CLASSIFICATION_TYPE":"U","NORAD_CAT_ID":58276,"ELEMENT_SET_NO":999,"REV_AT_EPOCH":12973,"BSTAR":0.00042157222,"MEAN_MOTION_DOT":0.0001321,"MEAN_MOTION_DDOT":0},{"OBJECT_NAME":"STARLINK-36100","OBJECT_ID":"2025-286T","EPOCH":"2026-03-09T23:32:57.232608","MEAN_MOTION":15.30206221,"ECCENTRICITY":0.00014631,"INCLINATION":53.1607,"RA_OF_ASC_NODE":356.935,"ARG_OF_PERICENTER":120.9525,"MEAN_ANOMALY":239.1619,"EPHEMERIS_TYPE":0,"CLASSIFICATION_TYPE":"U","NORAD_CAT_ID":66942,"ELEMENT_SET_NO":999,"REV_AT_EPOCH":1539,"BSTAR":0.00087551696,"MEAN_MOTION_DOT":0.00025666,"MEAN_MOTION_DDOT":0}]
